NORAD_CAT_ID,OBJECT_NAME,OBJECT_TYPE,EPOCH,MEAN_MOTION,ECCENTRICITY,INCLINATION,RA_OF_ASC_NODE,ARG_OF_PERICENTER,MEAN_ANOMALY,BSTAR,MEAN_MOTION_DOT,MEAN_MOTION_DDOT,TLE_LINE0,TLE_LINE1,TLE_LINE2,SEMIMAJOR_AXIS,PERIOD,APOGEE,PERIGEE,DECAYED
55676.0,STARLINK-5300,PAYLOAD,2023-05-28 05:56:57,15.69924169,0.0002962,69.9995,230.2318,263.6156,96.4702,2.8491e-05,3.214e-05,0.0,0 STARLINK-5300,1 55676U 23021BA  23148.24788203  .00003214  00000-0  28491-4 0  9997,2 55676  69.9995 230.2318 0002962 263.6156  96.4702 15.69924169 16462,6737.251,91.724,361.112,357.12,0.0
55676.0,STARLINK-5300,PAYLOAD,2023-05-28 09:00:26,15.69928685,0.0003014,69.9997,229.8737,247.9315,112.1561,3.245e-05,3.691e-05,0.0,0 STARLINK-5300,1 55676U 23021BA  23148.37531145  .00003691  00000-0  32450-4 0  9991,2 55676  69.9997 229.8737 0003014 247.9315 112.1561 15.69928685 16178,6737.238,91.724,361.134,357.072,0.0
55676.0,STARLINK-5300,PAYLOAD,2023-05-28 15:07:28,15.69912588,0.0003111,69.9985,229.1557,266.494,93.59,1.0107e-05,1.002e-05,0.0,0 STARLINK-5300,1 55676U 23021BA  23148.63019300  .00001002  00000-0  10107-4 0  9993,2 55676  69.9985 229.1557 0003111 266.4940  93.5900 15.69912588 16215,6737.284,91.725,361.245,357.053,0.0
55676.0,STARLINK-5300,PAYLOAD,2023-05-28 22:46:13,15.69924041,0.0003444,69.9989,228.2614,267.8342,92.2459,1.6558e-05,1.779e-05,0.0,0 STARLINK-5300,1 55676U 23021BA  23148.94876772  .00001779  00000-0  16558-4 0  9998,2 55676  69.9989 228.2614 0003444 267.8342  92.2459 15.69924041 16260,6737.251,91.724,361.437,356.796,0.0
55676.0,STARLINK-5300,PAYLOAD,2023-05-29 07:56:45,15.69913338,0.0003283,69.9993,227.1869,268.4084,91.6735,-2.1247e-06,-4.68e-06,0.0,0 STARLINK-5300,1 55676U 23021BA  23149.33107925 -.00000468  00000-0 -21247-5 0  9997,2 55676  69.9993 227.1869 0003283 268.4084  91.6735 15.69913338 16320,6737.282,91.725,361.359,356.935,0.0
55676.0,STARLINK-5300,PAYLOAD,2023-05-29 14:03:45,15.6992161,0.0003316,69.9988,226.4709,260.4563,99.6258,2.9749e-06,1.45e-06,0.0,0 STARLINK-5300,1 55676U 23021BA  23149.58593981  .00000145  00000-0  29749-5 0  9990,2 55676  69.9988 226.4709 0003316 260.4563  99.6258 15.69921610 16678,6737.258,91.724,361.357,356.889,0.0
55676.0,STARLINK-5300,PAYLOAD,2023-05-29 15:35:30,15.69921581,0.0003324,69.9983,226.2896,258.8552,101.227,5.6556e-06,4.67e-06,0.0,0 STARLINK-5300,1 55676U 23021BA  23149.64965632  .00000467  00000-0  56556-5 0  9996,2 55676  69.9983 226.2896 0003324 258.8552 101.2270 15.69921581 16374,6737.258,91.724,361.363,356.884,0.0
55676.0,STARLINK-5300,PAYLOAD,2023-05-30 08:24:45,15.69966571,0.0002866,69.9984,224.3192,258.9605,101.1268,-6.3237e-05,-7.822e-05,0.0,0 STARLINK-5300,1 55676U 23021BA  23150.35052464 -.00007822  00000-0 -63237-4 0  9993,2 55676  69.9984 224.3192 0002866 258.9605 101.1268 15.69966571 16489,6737.13,91.722,360.926,357.064,0.0
55676.0,STARLINK-5300,PAYLOAD,2023-05-30 14:31:46,15.69938804,0.0002321,69.9975,223.6013,270.3479,89.745,-1.2497e-05,-1.715e-05,0.0,0 STARLINK-5300,1 55676U 23021BA  23150.60539856 -.00001715  00000-0 -12497-4 0  9993,2 55676  69.9975 223.6013 0002321 270.3479  89.7450 15.69938804 16523,6737.209,91.723,360.638,357.51,0.0
55676.0,STARLINK-5300,PAYLOAD,2023-05-31 07:21:03,15.69919799,0.0003399,69.9977,221.6309,263.4887,96.5922,2.35e-05,2.613e-05,0.0,0 STARLINK-5300,1 55676U 23021BA  23151.30628998  .00002613  00000-0  23500-4 0  9990,2 55676  69.9977 221.6309 0003399 263.4887  96.5922 15.69919799 16637,6737.263,91.724,361.418,356.838,0.0
55676.0,STARLINK-5300,PAYLOAD,2023-05-31 13:28:03,15.69929028,0.0003477,69.9992,220.9144,261.7418,98.3384,2.5075e-05,2.804e-05,0.0,0 STARLINK-5300,1 55676U 23021BA  23151.56115211  .00002804  00000-0  25075-4 0  9998,2 55676  69.9992 220.9144 0003477 261.7418  98.3384 15.69929028 16987,6737.237,91.724,361.445,356.76,0.0
55676.0,STARLINK-5300,PAYLOAD,2023-06-01 07:49:05,15.69911354,0.0003119,69.9989,218.7639,262.0651,98.019,6.2641e-05,7.322e-05,0.0,0 STARLINK-5300,1 55676U 23021BA  23152.32576131  .00007322  00000-0  62641-4 0  9995,2 55676  69.9989 218.7639 0003119 262.0651  98.0190 15.69911354 17103,6737.288,91.725,361.254,357.051,0.0
55676.0,STARLINK-5300,PAYLOAD,2023-06-01 21:34:51,15.69922422,0.0003206,69.9985,217.152,268.8226,91.2602,9.0586e-06,8.77e-06,0.0,0 STARLINK-5300,1 55676U 23021BA  23152.89920729  .00000877  00000-0  90586-5 0  9991,2 55676  69.9985 217.1520 0003206 268.8226  91.2602 15.69922422 16885,6737.256,91.724,361.281,356.961,0.0
55676.0,STARLINK-5300,PAYLOAD,2023-06-02 12:52:22,15.69927026,0.0003553,69.9959,215.3617,266.4588,93.6202,1.7384e-05,1.878e-05,0.0,0 STARLINK-5300,1 55676U 23021BA  23153.53637058  .00001878  00000-0  17384-4 0  9999,2 55676  69.9959 215.3617 0003553 266.4588  93.6202 15.69927026 17296,6737.243,91.724,361.502,356.714,0.0
55676.0,STARLINK-5300,PAYLOAD,2023-06-02 14:24:07,15.69927425,0.0003599,69.9957,215.182,267.2867,92.7917,1.6542e-05,1.777e-05,0.0,0 STARLINK-5300,1 55676U 23021BA  23153.60008781  .00001777  00000-0  16542-4 0  9995,2 55676  69.9957 215.1820 0003599 267.2867  92.7917 15.69927425 17305,6737.242,91.724,361.531,356.682,0.0
55676.0,STARLINK-5300,PAYLOAD,2023-06-03 07:13:24,15.69923233,0.0003375,69.9957,213.2105,260.252,99.8295,7.6444e-06,7.06e-06,0.0,0 STARLINK-5300,1 55676U 23021BA  23154.30097553  .00000706  00000-0  76444-5 0  9997,2 55676  69.9957 213.2105 0003375 260.2520  99.8295 15.69923233 17109,6737.254,91.724,361.392,356.845,0.0
55676.0,STARLINK-5300,PAYLOAD,2023-06-03 13:20:24,15.69926875,0.0003283,69.9979,212.4982,251.9516,108.1322,7.3141e-06,6.67e-06,0.0,0 STARLINK-5300,1 55676U 23021BA  23154.55583960  .00000667  00000-0  73141-5 0  9993,2 55676  69.9979 212.4982 0003283 251.9516 108.1322 15.69926875 17455,6737.243,91.724,361.32,356.896,0.0
55676.0,STARLINK-5300,PAYLOAD,2023-06-03 20:59:10,15.69922533,0.0003441,69.9968,211.6006,267.7555,92.3247,1.3171e-05,1.371e-05,0.0,0 STARLINK-5300,1 55676U 23021BA  23154.87442550  .00001371  00000-0  13171-4 0  9996,2 55676  69.9968 211.6006 0003441 267.7555  92.3247 15.69922533 17508,6737.256,91.724,361.439,356.802,0.0
55676.0,STARLINK-5300,PAYLOAD,2023-06-04 06:09:41,15.69914057,0.0003292,69.999,210.5274,264.8164,95.2656,6.2933e-06,5.44e-06,0.0,0 STARLINK-5300,1 55676U 23021BA  23155.25673397  .00000544  00000-0  62933-5 0  9996,2 55676  69.9990 210.5274 0003292 264.8164  95.2656 15.69914057 17256,6737.28,91.725,361.363,356.927,0.0
55676.0,STARLINK-5300,PAYLOAD,2023-06-04 13:48:26,15.69924573,0.0002827,69.9997,209.6325,259.5171,100.5706,1.1769e-05,1.203e-05,0.0,0 STARLINK-5300,1 55676U 23021BA  23155.57531066  .00001203  00000-0  11769-4 0  9990,2 55676  69.9997 209.6325 0002827 259.5171 100.5706 15.69924573 17611,6737.25,91.724,361.019,357.21,0.0
55676.0,STARLINK-5300,PAYLOAD,2023-06-05 12:44:43,15.69922019,0.0003227,69.9976,206.946,262.9192,97.1637,7.227e-06,6.56e-06,0.0,0 STARLINK-5300,1 55676U 23021BA  23156.53106117  .00000656  00000-0  72270-5 0  9998,2 55676  69.9976 206.9460 0003227 262.9192  97.1637 15.69922019 17767,6737.257,91.724,361.296,356.948,0.0
55676.0,STARLINK-5300,PAYLOAD,2023-06-05 23:26:59,15.69923824,0.0003345,69.9983,205.6887,269.2692,90.812,6.6123e-06,5.82e-06,0.0,0 STARLINK-5300,1 55676U 23021BA  23156.97707699  .00000582  00000-0  66123-5 0  9996,2 55676  69.9983 205.6887 0003345 269.2692  90.8120 15.69923824 17526,6737.252,91.724,361.371,356.863,0.0
55676.0,STARLINK-5300,PAYLOAD,2023-06-06 05:34:00,15.6991425,0.000334,69.9982,204.9715,271.1402,88.9411,8.9954e-06,8.69e-06,0.0,0 STARLINK-5300,1 55676U 23021BA  23157.23194950  .00000869  00000-0  89954-5 0  9991,2 55676  69.9982 204.9715 0003340 271.1402  88.9411 15.69914250 17561,6737.279,91.725,361.395,356.894,0.0
55676.0,STARLINK-5300,PAYLOAD,2023-06-06 11:41:00,15.6992479,0.0003259,69.9984,204.2548,270.1289,89.9534,1.0043e-05,9.95e-06,0.0,0 STARLINK-5300,1 55676U 23021BA  23157.48680987  .00000995  00000-0  10043-4 0  9990,2 55676  69.9984 204.2548 0003259 270.1289  89.9534 15.69924790 17917,6737.249,91.724,361.31,356.919,0.0
55676.0,STARLINK-5300,PAYLOAD,2023-06-06 13:12:45,15.69919726,0.0003356,69.9985,204.0758,268.6652,91.4159,1.8957e-05,2.067e-05,0.0,0 STARLINK-5300,1 55676U 23021BA  23157.55052790  .00002067  00000-0  18957-4 0  9997,2 55676  69.9985 204.0758 0003356 268.6652  91.4159 15.69919726 17614,6737.264,91.724,361.39,356.868,0.0
55676.0,STARLINK-5300,PAYLOAD,2023-06-07 02:58:32,15.6991262,0.0003318,69.9985,202.4657,261.9267,98.1552,-1.0902e-06,-3.44e-06,0.0,0 STARLINK-5300,1 55676U 23021BA  23158.12398469 -.00000344  00000-0 -10902-5 0  9998,2 55676  69.9985 202.4657 0003318 261.9267  98.1552 15.69912620 17707,6737.284,91.725,361.384,356.914,0.0
55676.0,STARLINK-5300,PAYLOAD,2023-06-07 06:02:02,15.6991571,0.0003553,69.9972,202.1075,266.7369,93.342,-4.0507e-06,-7e-06,0.0,0 STARLINK-5300,1 55676U 23021BA  23158.25141718 -.00000700  00000-0 -40507-5 0  9995,2 55676  69.9972 202.1075 0003553 266.7369  93.3420 15.69915710 18032,6737.275,91.725,361.534,356.746,0.0
55676.0,STARLINK-5300,PAYLOAD,2023-06-07 19:47:48,15.69920675,0.0003552,69.9969,200.4949,266.6085,93.4704,2.4445e-06,8.1e-07,0.0,0 STARLINK-5300,1 55676U 23021BA  23158.82486357  .00000081  00000-0  24445-5 0  9992,2 55676  69.9969 200.4949 0003552 266.6085  93.4704 15.69920675 18124,6737.261,91.724,361.519,356.733,0.0
55676.0,STARLINK-5300,PAYLOAD,2023-06-07 22:51:17,15.69928248,0.0003656,69.9971,200.1368,266.3371,93.7407,1.0786e-05,1.084e-05,0.0,0 STARLINK-5300,1 55676U 23021BA  23158.95229047  .00001084  00000-0  10786-4 0  9993,2 55676  69.9971 200.1368 0003656 266.3371  93.7407 15.69928248 17833,6737.239,91.724,361.567,356.641,0.0
55676.0,STARLINK-5300,PAYLOAD,2023-06-08 06:30:04,15.69910653,0.0003592,69.9975,199.2366,281.5058,78.5734,-9.5226e-07,-3.27e-06,0.0,0 STARLINK-5300,1 55676U 23021BA  23159.27088967 -.00000327  00000-0 -95226-6 0  9998,2 55676  69.9975 199.2366 0003592 281.5058  78.5734 15.69910653 17883,6737.29,91.725,361.575,356.735,0.0
